STARLINK-33883          
1 63781U 25091G   26068.97616567  .00022985  00000+0  84162-3 0  9990
2 63781  42.9925  51.1083 0001176 132.9192 227.1758 15.27601658 48946
KUIPER-00209            
1 67776U 26030N   26068.61786546  .00035298  00000+0  11963-2 0  9997
2 67776  51.8838 220.0775 0012191  59.1967 301.0215 15.30161950  5077
