[{"OBJECT_NAME":"STARLINK-33883","OBJECT_ID":"2025-091G","EPOCH":"2026-03-09T23:25:40.714752","MEAN_MOTION":15.27601658,"ECCENTRICITY":0.00011757,"INCLINATION":42.9925,"RA_OF_ASC_NODE":51.1083,"ARG_OF_PERICENTER":132.9192,"MEAN_ANOMALY":227.1758,"EPHEMERIS_TYPE":0,"CLASSIFICATION_TYPE":"U","NORAD_CAT_ID":63781,"ELEMENT_SET_NO":999,"REV_AT_EPOCH":4894,"BSTAR":0.00084161717,"MEAN_MOTION_DOT":0.00022985,"MEAN_MOTION_DDOT":0},{"OBJECT_NAME":"KUIPER-00209","OBJECT_ID":"2026-030N","EPOCH":"2026-03-09T14:49:43.575744","MEAN_MOTION":15.3016195,"ECCENTRICITY":0.0012191,"INCLINATION":51.8838,"RA_OF_ASC_NODE":220.0775,"ARG_OF_PERICENTER":59.1967,"MEAN_ANOMALY":301.0215,"EPHEMERIS_TYPE":0,"CLASSIFICATION_TYPE":"U","NORAD_CAT_ID":67776,"ELEMENT_SET_NO":999,"REV_AT_EPOCH":507,"BSTAR":0.0011963,"MEAN_MOTION_DOT":0.00035298,"MEAN_MOTION_DDOT":0}]
